API VERSION: 1.2
API SOURCE: NASA/JPL Horizons API

*******************************************************************************
 Revised: January 26, 2022             Saturn                               699
 
 PHYSICAL DATA:
  Mass x10^26 (kg)      = 5.6834          Density (g/cm^3)       =  0.687+-.001
  Equat. radius (1 bar) = 60268+-4 km     Polar radius (km)      = 54364+-10
  Vol. Mean Radius (km) = 58232+-6        Flattening             =  0.09796
  Geometric Albedo      = 0.47            Rocky core mass (Mc/M) =  0.1027
  Sid. rot. period (III)= 10h 39m 22.4s   Sid. rot. rate (rad/s) =  0.000163785 
  Mean solar day, hrs   =~10.656         
  GM (km^3/s^2)         = 37931206.234    GM 1-sigma (km^3/s^2)  = +- 98
  Equ. grav, ge (m/s^2) = 10.44           Pol. grav, gp (m/s^2)  = 12.14+-0.01
  Vis. magnitude V(1,0) = -8.88          
  Vis. mag. (opposition)= +0.67           Obliquity to orbit     = 26.73 deg
  Sidereal orbit period = 29.447498 yr    Sidereal orbit period  = 10755.698 d
  Mean daily motion     = 0.0334979 deg/d Mean orbit velocity    =  9.68 km/s
  Atmos. temp. (1 bar)  = 134+-4 K        Escape speed, km/s    =  35.5          
  Aroche(ice)/Rp        =  2.71           Hill's sphere rad. Rp  = 1100
                                 Perihelion  Aphelion    Mean
  Solar Constant (W/m^2)         16.8        13.6        15.1
  Maximum Planetary IR (W/m^2)    4.7         4.5         4.6
  Minimum Planetary IR (W/m^2)    4.7         4.5         4.6
*******************************************************************************


*******************************************************************************
Ephemeris / API_USER Sun Mar  1 11:37:01 2026 Pasadena, USA      / Horizons
*******************************************************************************
Target body name: Saturn (699)                    {source: sat441l}
Center body name: Sun (10)                        {source: DE441}
Center-site name: BODY CENTER
*******************************************************************************
Start time      : A.D. 1749-Dec-31 00:00:00.0000 TDB
Stop  time      : A.D. 1914-Mar-12 00:00:00.0000 TDB
Step-size       : 43200 minutes
*******************************************************************************
Center geodetic : 0.0, 0.0, 0.0                   {E-lon(deg),Lat(deg),Alt(km)}
Center cylindric: 0.0, 0.0, 0.0                   {E-lon(deg),Dxy(km),Dz(km)}
Center radii    : 695700.0, 695700.0, 695700.0 km {Equator_a, b, pole_c}
Output units    : AU-D
Calendar mode   : Mixed Julian/Gregorian
Output type     : GEOMETRIC cartesian states
Output format   : 3 (position, velocity, LT, range, range-rate)
Reference frame : Ecliptic of J2000.0
*******************************************************************************
JDTDB
   X     Y     Z
   VX    VY    VZ
   LT    RG    RR
*******************************************************************************
$$SOE
2376073.500000000 = A.D. 1793-May-14 00:00:00.0000 TDB 
 X = 7.156231478030724E+00 Y = 5.776080992074169E+00 Z =-3.860440632606850E-01
 VX=-3.809383877812134E-03 VY= 4.324310454661103E-03 VZ= 7.355446901392433E-05
 LT= 5.316106291611263E-02 RG= 9.204552711182501E+00 RR=-2.511431827194651E-04
2376103.500000000 = A.D. 1793-Jun-13 00:00:00.0000 TDB 
 X = 7.040711440286433E+00 Y = 5.904818216972078E+00 Z =-3.837685648377219E-01
 VX=-3.890329606656560E-03 VY= 4.257583921451353E-03 VZ= 7.817567240735719E-05
 LT= 5.311774511566877E-02 RG= 9.197052466536395E+00 RR=-2.479523132330567E-04
2376133.500000000 = A.D. 1793-Jul-13 00:00:00.0000 TDB 
 X = 6.922783924506873E+00 Y = 6.031542562947154E+00 Z =-3.813620157354194E-01
 VX=-3.970416767445720E-03 VY= 4.189375708802581E-03 VZ= 8.272006245410281E-05
 LT= 5.307505891064681E-02 RG= 9.189661579247611E+00 RR=-2.447843962268665E-04
2376163.500000000 = A.D. 1793-Aug-12 00:00:00.0000 TDB 
 X = 6.802483305431977E+00 Y = 6.156205138051102E+00 Z =-3.788248586960524E-01
 VX=-4.049545569913792E-03 VY= 4.119869450036875E-03 VZ= 8.710759534234913E-05
 LT= 5.303301868135639E-02 RG= 9.182382539189577E+00 RR=-2.414627326341405E-04
2376193.500000000 = A.D. 1793-Sep-11 00:00:00.0000 TDB 
 X = 6.679843856027214E+00 Y = 6.278756819899547E+00 Z =-3.761572286673718E-01
 VX=-4.127338625424498E-03 VY= 4.049102480876896E-03 VZ= 9.127458367059057E-05
 LT= 5.299163032998534E-02 RG= 9.175216368294445E+00 RR=-2.377035319281924E-04
2376223.500000000 = A.D. 1793-Oct-11 00:00:00.0000 TDB 
 X = 6.554901963244705E+00 Y = 6.399148148122274E+00 Z =-3.733594119031497E-01
 VX=-4.203413654516559E-03 VY= 3.976830523240501E-03 VZ= 9.532516229174187E-05
 LT= 5.295090015756565E-02 RG= 9.168164157552082E+00 RR=-2.334412045730503E-04
2376253.500000000 = A.D. 1793-Nov-10 00:00:00.0000 TDB 
 X = 6.427695875860836E+00 Y = 6.517332767748804E+00 Z =-3.704322730978596E-01
 VX=-4.277850777999273E-03 VY= 3.902885213428815E-03 VZ= 9.940163272605637E-05
 LT= 5.291084727518616E-02 RG= 9.161229215944939E+00 RR=-2.289150982231089E-04
2376283.500000000 = A.D. 1793-Dec-10 00:00:00.0000 TDB 
 X = 6.298263972164668E+00 Y = 6.633265554343470E+00 Z =-3.673765732480714E-01
 VX=-4.350764120393629E-03 VY= 3.827090380955924E-03 VZ= 1.036091093764420E-04
 LT= 5.287148929025580E-02 RG= 9.154414592101373E+00 RR=-2.243963993984016E-04
2376313.500000000 = A.D. 1794-Jan-09 00:00:00.0000 TDB 
 X = 6.166646619231942E+00 Y = 6.746902366503506E+00 Z =-3.641935045129765E-01
 VX=-4.422472217154487E-03 VY= 3.749442238844032E-03 VZ= 1.079971581413533E-04
 LT= 5.283284910447891E-02 RG= 9.147724251328567E+00 RR=-2.201678188371649E-04
2376343.500000000 = A.D. 1794-Feb-08 00:00:00.0000 TDB 
 X = 6.032884841172803E+00 Y = 6.858200456929309E+00 Z =-3.608842216034790E-01
 VX=-4.493260437623454E-03 VY= 3.670253067239581E-03 VZ= 1.124504811895416E-04
 LT= 5.279495114215640E-02 RG= 9.141162422563134E+00 RR=-2.162277653316350E-04
2376373.500000000 = A.D. 1794-Mar-10 00:00:00.0000 TDB 
 X = 5.897020058390694E+00 Y = 6.967115826244003E+00 Z =-3.574493884420052E-01
 VX=-4.562949481645979E-03 VY= 3.589720163407305E-03 VZ= 1.168378236071082E-04
 LT= 5.275780891284173E-02 RG= 9.134731444911745E+00 RR=-2.123294019884033E-04
2376403.500000000 = A.D. 1794-Apr-09 00:00:00.0000 TDB 
 X = 5.759095412489704E+00 Y = 7.073604642505090E+00 Z =-3.538899621655891E-01
 VX=-4.631426066814801E-03 VY= 3.507980721225182E-03 VZ= 1.210946631843085E-04
 LT= 5.272143582324937E-02 RG= 9.128433639675048E+00 RR=-2.083172382071451E-04
2376433.500000000 = A.D. 1794-May-09 00:00:00.0000 TDB 
 X = 5.619154755793360E+00 Y = 7.177623818164595E+00 Z =-3.502066079024713E-01
 VX=-4.698438588228361E-03 VY= 3.425216369261484E-03 VZ= 1.251260689733026E-04
 LT= 5.268584348468475E-02 RG= 9.122271017288261E+00 RR=-2.039140161608821E-04
2376463.500000000 = A.D. 1794-Jun-08 00:00:00.0000 TDB 
 X = 5.477242958102691E+00 Y = 7.279130755342679E+00 Z =-3.463999601228037E-01
 VX=-4.763553677477390E-03 VY= 3.341319238543914E-03 VZ= 1.289627168418018E-04
 LT= 5.265104169769799E-02 RG= 9.116245274664031E+00 RR=-1.989759849723003E-04
2376493.500000000 = A.D. 1794-Jul-08 00:00:00.0000 TDB 
 X = 5.333405543079953E+00 Y = 7.378085182374941E+00 Z =-3.424711872439329E-01
 VX=-4.826731602818948E-03 VY= 3.256047417625500E-03 VZ= 1.327574798488549E-04
 LT= 5.261704574346979E-02 RG= 9.110359057656780E+00 RR=-1.937341306648986E-04
2376523.500000000 = A.D. 1794-Aug-07 00:00:00.0000 TDB 
 X = 5.187688306534817E+00 Y = 7.474448432400084E+00 Z =-3.384213867251060E-01
 VX=-4.888062344513103E-03 VY= 3.169236779603431E-03 VZ= 1.366200310939004E-04
 LT= 5.258387212443947E-02 RG= 9.104615223575300E+00 RR=-1.884409264179452E-04
2376553.500000000 = A.D. 1794-Sep-06 00:00:00.0000 TDB 
 X = 5.040137863721892E+00 Y = 7.568182891044582E+00 Z =-3.342520617123830E-01
 VX=-4.947808409864433E-03 VY= 3.080749890948658E-03 VZ= 1.406464815992997E-04
 LT= 5.255153822226038E-02 RG= 9.099016781959575E+00 RR=-1.834230345074678E-04
2376583.500000000 = A.D. 1794-Oct-06 00:00:00.0000 TDB 
 X = 4.890801658693968E+00 Y = 7.659251124785953E+00 Z =-3.299648565181446E-01
 VX=-5.006322979115177E-03 VY= 2.990744699782629E-03 VZ= 1.447913655928483E-04
 LT= 5.252005804170559E-02 RG= 9.093566157660899E+00 RR=-1.787905930897879E-04
2376613.500000000 = A.D. 1794-Nov-05 00:00:00.0000 TDB 
 X = 4.739729090697841E+00 Y = 7.747615113976712E+00 Z =-3.255610225612390E-01
 VX=-5.063531505767753E-03 VY= 2.899540775437903E-03 VZ= 1.488927739619370E-04
 LT= 5.248944145057868E-02 RG= 9.088265059236493E+00 RR=-1.742593682730997E-04
2376643.500000000 = A.D. 1794-Dec-05 00:00:00.0000 TDB 
 X = 4.586970934637009E+00 Y = 7.833237504621585E+00 Z =-3.210419689471902E-01
 VX=-5.119309345467294E-03 VY= 2.807271825773312E-03 VZ= 1.528855486982779E-04
 LT= 5.245969782541608E-02 RG= 9.083115110183313E+00 RR=-1.696751478585667E-04
2376673.500000000 = A.D. 1795-Jan-04 00:00:00.0000 TDB 
 X = 4.432579244195555E+00 Y = 7.916081296173203E+00 Z =-3.164088911025330E-01
 VX=-5.173467162932390E-03 VY= 2.714148875718728E-03 VZ= 1.566733118043474E-04
 LT= 5.243083374552694E-02 RG= 9.078117449673428E+00 RR=-1.647866811573371E-04
2376703.500000000 = A.D. 1795-Feb-03 00:00:00.0000 TDB 
 X = 4.276607726960585E+00 Y = 7.996111450445357E+00 Z =-3.116628885954063E-01
 VX=-5.225589493079419E-03 VY= 2.620275808210689E-03 VZ= 1.602091927311905E-04
 LT= 5.240286179479528E-02 RG= 9.073274256538813E+00 RR=-1.593372171477465E-04
2376733.500000000 = A.D. 1795-Mar-05 00:00:00.0000 TDB 
 X = 4.119109199352342E+00 Y = 8.073295723490366E+00 Z =-3.068053473956200E-01
 VX=-5.275539070308994E-03 VY= 2.525399185512631E-03 VZ= 1.636345433063564E-04
 LT= 5.237579803104130E-02 RG= 9.068588311104849E+00 RR=-1.535444080913061E-04
2376763.500000000 = A.D. 1795-Apr-04 00:00:00.0000 TDB 
 X = 3.960136530823159E+00 Y = 8.147602797841429E+00 Z =-3.018376928431252E-01
 VX=-5.323334984609813E-03 VY= 2.429336797867320E-03 VZ= 1.670629318928403E-04
 LT= 5.234965583912429E-02 RG= 9.064061930888075E+00 RR=-1.476477044492528E-04
